0 IUS R/B(2)
1 25869U 99040D   13279.25670767 -.00000469  00000-0  00000+0 0   938
2 25869 035.4558 329.5226 8233082 029.9950 358.5213 00.97231033 50450
0 IUS R/B(2)
1 25869U 99040D   13280.32171291 -.00000455  00000-0  00000+0 0   942
2 25869 035.4153 329.3569 8232645 030.1411 011.3333 00.97232916 50468
0 IUS R/B(2)
1 25869U 99040D   13283.38143594 -.00000497  00000-0  00000+0 0   953
2 25869 035.3915 329.0230 8232977 030.6087 002.3051 00.97232432 50490
0 IUS R/B(2)
1 25869U 99040D   13286.52866368 -.00000551  00000-0  00000+0 0   965
2 25869 035.3684 328.6791 8233047 031.0897 023.8894 00.97232683 50528
0 IUS R/B(2)
1 25869U 99040D   13288.52586398 -.00000515  00000-0  00000+0 0   970
2 25869 035.3522 328.4622 8233259 031.3918 002.9447 00.97233128 50541
0 IUS R/B(2)
1 25869U 99040D   13289.55535405 -.00000486  00000-0  00000+0 0   985
2 25869 035.3436 328.3496 8233430 031.5484 003.2856 00.97233347 50556
0 IUS R/B(2)
1 25869U 99040D   13290.57024980  .00000000  00000-0  10000-3 0   997
2 25869 035.3398 328.2380 8233998 031.7036 358.5338 00.97227864 50567
0 IUS R/B(2)
1 25869U 99040D   13290.64750782 -.00000459  00000-0  00000+0 0   995
2 25869 035.3337 328.2295 8233599 031.7156 025.5617 00.97233502 50562
